COSMOS 1933             
1 18958U 88020A   26052.11171354  .00003022  00000+0  14796-3 0  9993
2 18958  82.5103 267.3165 0002755 256.3809 103.7118 15.17825802 47713
SL-3 R/B                
1 19046U 88032B   26052.53585421  .00005044  00000+0  23782-3 0  9996
2 19046  97.5173  35.8499 0024252 292.2810  67.5853 15.19690209 49651
SL-16 R/B               
1 19120U 88039B   26052.49203358 -.00000134  00000+0 -40699-4 0  9991
2 19120  71.0136 102.8007 0021729 358.5909   1.5151 14.19613758956087
COSMOS 1953             
1 19210U 88050A   26052.32307844  .00008927  00000+0  32319-3 0  9996
2 19210  82.5106 174.6979 0011352 176.9973 183.1337 15.28191069 35280
SL-8 R/B                
1 19257U 88053B   26052.53463205  .00000211  00000+0  76959-4 0  9994
2 19257  74.0483 142.2430 0020942 324.0623 138.2407 14.38905145974279
COSMOS 1975             
1 19573U 88093A   26052.61418931  .00007114  00000+0  26063-3 0  9993
2 19573  82.5212 133.8163 0010809 221.1798 138.8627 15.27783326 16950
SL-14 R/B               
1 19574U 88093B   26052.50795133  .00000455  00000+0  49520-4 0  9999
2 19574  82.5281  57.2376 0022323  91.5860  24.5968 14.85635339998631
SL-16 R/B               
1 19650U 88102B   26052.51760512 -.00000153  00000+0 -53270-4 0  9993
2 19650  70.9997 185.5209 0013065  26.5451 333.6339 14.16151821924603
INTERCOSMOS 24          
1 20261U 89080A   26052.59920233  .00000560  00000+0  16444-3 0  9996
2 20261  82.6048 114.8802 1187254 330.2004  23.6246 12.59531747664772
SL-14 R/B               
1 20262U 89080C   26052.39189990  .00000529  00000+0  15841-3 0  9997
2 20262  82.5963 183.6465 1229881 222.0038 128.0137 12.50470657658118
DELTA 1 R/B             
1 20323U 89089B   26052.48031720  .00000273  00000+0  76266-4 0  9996
2 20323  97.0715 262.4958 0069277 172.6921 187.5304 14.50648357893388
ARIANE 40 R/B           
1 20443U 90005H   26052.41356444  .00000215  00000+0  82065-4 0  9995
2 20443  98.3121 113.5570 0009044 250.9063 109.1146 14.39858648890468
